start=new Date('2023-03-25T00:00:00.000Z').valueOf();
sats=[{"TLE_LINE1":"1 49442U 21104AL  23083.24890309  .00119110  00000-0  73533-2 0  9998","ELEMENT_SET_NO":"999","MEAN_ELEMENT_THEORY":"SGP4","MEAN_MOTION":"15.08958248","EPHEMERIS_TYPE":"0","CLASSIFICATION_TYPE":"U","CENTER_NAME":"EARTH","RA_OF_ASC_NODE":"23.8933","APOAPSIS":"540.015","FILE":"3869846","MEAN_MOTION_DDOT":"0.0000000000000","REV_AT_EPOCH":"7565","NORAD_CAT_ID":"49442","REF_FRAME":"TEME","COUNTRY_CODE":"US","RCS_SIZE":"LARGE","SEMIMAJOR_AXIS":"6917.519","OBJECT_ID":"2021-104AL","OBJECT_TYPE":"PAYLOAD","ECCENTRICITY":"0.00009120","EPOCH":"2023-03-24T05:58:25.226976","TIME_SYSTEM":"UTC","PERIOD":"95.430","MEAN_ANOMALY":"271.7513","TLE_LINE2":"2 49442  53.2166  23.8933 0000912  88.3584 271.7513 15.08958248 75653","MEAN_MOTION_DOT":"0.00119110","PERIAPSIS":"538.753","ARG_OF_PERICENTER":"88.3584","DECAY_DATE":null,"BSTAR":"0.00735330000000","OBJECT_NAME":"STARLINK-3098","GP_ID":"228789485","INCLINATION":"53.2166","SITE":"AFETR","LAUNCH_DATE":"2021-11-13"},{"COUNTRY_CODE":"US","SEMIMAJOR_AXIS":"6917.531","RCS_SIZE":"LARGE","OBJECT_TYPE":"PAYLOAD","OBJECT_ID":"2021-104AM","EPOCH":"2023-03-24T05:31:56.076960","ECCENTRICITY":"0.00011530","RA_OF_ASC_NODE":"23.9796","APOAPSIS":"540.193","FILE":"3869846","MEAN_MOTION_DDOT":"0.0000000000000","REV_AT_EPOCH":"7565","REF_FRAME":"TEME","NORAD_CAT_ID":"49443","CLASSIFICATION_TYPE":"U","CENTER_NAME":"EARTH","TLE_LINE1":"1 49443U 21104AM  23083.23051015  .00155204  00000-0  95285-2 0  9993","ELEMENT_SET_NO":"999","MEAN_ELEMENT_THEORY":"SGP4","EPHEMERIS_TYPE":"0","MEAN_MOTION":"15.08954460","BSTAR":"0.00952850000000","GP_ID":"228789736","OBJECT_NAME":"STARLINK-3136","INCLINATION":"53.2183","LAUNCH_DATE":"2021-11-13","SITE":"AFETR","DECAY_DATE":null,"ARG_OF_PERICENTER":"90.3432","PERIOD":"95.430","MEAN_ANOMALY":"269.7693","PERIAPSIS":"538.598","MEAN_MOTION_DOT":"0.00155204","TLE_LINE2":"2 49443  53.2183  23.9796 0001153  90.3432 269.7693 15.08954460 75652","TIME_SYSTEM":"UTC"},{"REF_FRAME":"TEME","NORAD_CAT_ID":"49444","MEAN_MOTION_DDOT":"0.0000000000000","REV_AT_EPOCH":"7563","FILE":"3869846","RA_OF_ASC_NODE":"24.5064","APOAPSIS":"540.611","EPOCH":"2023-03-24T02:42:21.293280","ECCENTRICITY":"0.00012820","OBJECT_TYPE":"PAYLOAD","OBJECT_ID":"2021-104AN","SEMIMAJOR_AXIS":"6917.859","RCS_SIZE":"LARGE","COUNTRY_CODE":"US","MEAN_MOTION":"15.08847065","EPHEMERIS_TYPE":"0","ELEMENT_SET_NO":"999","MEAN_ELEMENT_THEORY":"SGP4","TLE_LINE1":"1 49444U 21104AN  23083.11274645  .00002556  00000-0  17858-3 0  9999","CENTER_NAME":"EARTH","CLASSIFICATION_TYPE":"U","ARG_OF_PERICENTER":"70.9019","DECAY_DATE":null,"LAUNCH_DATE":"2021-11-13","SITE":"AFETR","GP_ID":"228789987","OBJECT_NAME":"STARLINK-3126","INCLINATION":"53.2167","BSTAR":"0.00017858000000","TIME_SYSTEM":"UTC","PERIAPSIS":"538.837","MEAN_MOTION_DOT":"0.00002556","TLE_LINE2":"2 49444  53.2167  24.5064 0001282  70.9019 289.2112 15.08847065 75631","MEAN_ANOMALY":"289.2112","PERIOD":"95.437"},{"TIME_SYSTEM":"UTC","PERIAPSIS":"538.834","MEAN_MOTION_DOT":"0.00020864","TLE_LINE2":"2 49445  53.2166  34.4433 0001196  93.1910 266.9219 15.08867401 75492","MEAN_ANOMALY":"266.9219","PERIOD":"95.436","DECAY_DATE":null,"ARG_OF_PERICENTER":"93.1910","LAUNCH_DATE":"2021-11-13","SITE":"AFETR","GP_ID":"228788735","INCLINATION":"53.2166","OBJECT_NAME":"STARLINK-3122","BSTAR":"0.00132410000000","MEAN_MOTION":"15.08867401","EPHEMERIS_TYPE":"0","MEAN_ELEMENT_THEORY":"SGP4","ELEMENT_SET_NO":"999","TLE_LINE1":"1 49445U 21104AP  23083.12655494  .00020864  00000-0  13241-2 0  9999","CENTER_NAME":"EARTH","CLASSIFICATION_TYPE":"U","REF_FRAME":"TEME","NORAD_CAT_ID":"49445","REV_AT_EPOCH":"7549","MEAN_MOTION_DDOT":"0.0000000000000","FILE":"3869846","RA_OF_ASC_NODE":"34.4433","APOAPSIS":"540.489","EPOCH":"2023-03-24T03:02:14.346816","ECCENTRICITY":"0.00011960","OBJECT_TYPE":"PAYLOAD","OBJECT_ID":"2021-104AP","RCS_SIZE":"LARGE","SEMIMAJOR_AXIS":"6917.797","COUNTRY_CODE":"US"},{"BSTAR":"0.00049125000000","GP_ID":"228788985","INCLINATION":"53.2172","OBJECT_NAME":"STARLINK-3099","SITE":"AFETR","LAUNCH_DATE":"2021-11-13","ARG_OF_PERICENTER":"104.6180","DECAY_DATE":null,"PERIOD":"95.436","MEAN_ANOMALY":"255.4961","TLE_LINE2":"2 49446  53.2172  24.5199 0001339 104.6180 255.4961 15.08859001 75635","PERIAPSIS":"538.761","MEAN_MOTION_DOT":"0.00007543","TIME_SYSTEM":"UTC","COUNTRY_CODE":"US","SEMIMAJOR_AXIS":"6917.822","RCS_SIZE":"LARGE","OBJECT_ID":"2021-104AQ","OBJECT_TYPE":"PAYLOAD","ECCENTRICITY":"0.00013390","EPOCH":"2023-03-24T02:37:03.907200","APOAPSIS":"540.614","RA_OF_ASC_NODE":"24.5199","FILE":"3869846","MEAN_MOTION_DDOT":"0.0000000000000","REV_AT_EPOCH":"7563","NORAD_CAT_ID":"49446","REF_FRAME":"TEME","CLASSIFICATION_TYPE":"U","CENTER_NAME":"EARTH","TLE_LINE1":"1 49446U 21104AQ  23083.10907300  .00007543  00000-0  49125-3 0  9994","ELEMENT_SET_NO":"999","MEAN_ELEMENT_THEORY":"SGP4","EPHEMERIS_TYPE":"0","MEAN_MOTION":"15.08859001"},{"INCLINATION":"53.2178","GP_ID":"228790237","OBJECT_NAME":"STARLINK-3115","BSTAR":"0.00782060000000","SITE":"AFETR","LAUNCH_DATE":"2021-11-13","ARG_OF_PERICENTER":"108.6054","DECAY_DATE":null,"PERIOD":"95.431","TLE_LINE2":"2 49447  53.2178  33.8844 0001234 108.6054 251.5072 15.08947252 75513","PERIAPSIS":"538.564","MEAN_MOTION_DOT":"0.00126797","MEAN_ANOMALY":"251.5072","TIME_SYSTEM":"UTC","RCS_SIZE":"LARGE","SEMIMAJOR_AXIS":"6917.553","COUNTRY_CODE":"US","ECCENTRICITY":"0.00012340","EPOCH":"2023-03-24T06:02:24.100512","OBJECT_ID":"2021-104AR","OBJECT_TYPE":"PAYLOAD","FILE":"3869846","APOAPSIS":"540.271","RA_OF_ASC_NODE":"33.8844","NORAD_CAT_ID":"49447","REF_FRAME":"TEME","REV_AT_EPOCH":"7551","MEAN_MOTION_DDOT":"0.0000000000000","CLASSIFICATION_TYPE":"U","CENTER_NAME":"EARTH","MEAN_ELEMENT_THEORY":"SGP4","ELEMENT_SET_NO":"999","TLE_LINE1":"1 49447U 21104AR  23083.25166783  .00126797  00000-0  78206-2 0  9997","MEAN_MOTION":"15.08947252","EPHEMERIS_TYPE":"0"},{"DECAY_DATE":null,"ARG_OF_PERICENTER":"91.7189","SITE":"AFETR","LAUNCH_DATE":"2021-11-13","GP_ID":"228790488","INCLINATION":"53.2170","OBJECT_NAME":"STARLINK-3097","BSTAR":"0.00706670000000","TIME_SYSTEM":"UTC","TLE_LINE2":"2 49448  53.2170  33.8599 0001184  91.7189 268.3938 15.08944227 75514","MEAN_MOTION_DOT":"0.00114334","PERIAPSIS":"538.608","MEAN_ANOMALY":"268.3938","PERIOD":"95.431","NORAD_CAT_ID":"49448","REF_FRAME":"TEME","REV_AT_EPOCH":"7551","MEAN_MOTION_DDOT":"0.0000000000000","FILE":"3869846","RA_OF_ASC_NODE":"33.8599","APOAPSIS":"540.246","ECCENTRICITY":"0.00011840","EPOCH":"2023-03-24T06:24:58.918176","OBJECT_ID":"2021-104AS","OBJECT_TYPE":"PAYLOAD","SEMIMAJOR_AXIS":"6917.562","RCS_SIZE":"LARGE","COUNTRY_CODE":"US","MEAN_MOTION":"15.08944227","EPHEMERIS_TYPE":"0","ELEMENT_SET_NO":"999","MEAN_ELEMENT_THEORY":"SGP4","TLE_LINE1":"1 49448U 21104AS  23083.26734859  .00114334  00000-0  70667-2 0  9991","CENTER_NAME":"EARTH","CLASSIFICATION_TYPE":"U"},{"ARG_OF_PERICENTER":"125.2749","DECAY_DATE":null,"BSTAR":"0.00072489000000","OBJECT_NAME":"STARLINK-3137","GP_ID":"228789236","INCLINATION":"53.2175","SITE":"AFETR","LAUNCH_DATE":"2021-11-13","TIME_SYSTEM":"UTC","PERIOD":"95.435","MEAN_ANOMALY":"234.8345","TLE_LINE2":"2 49449  53.2175  33.8980 0001092 125.2749 234.8345 15.08886263 75512","PERIAPSIS":"538.849","MEAN_MOTION_DOT":"0.00011282","RA_OF_ASC_NODE":"33.8980","APOAPSIS":"540.359","FILE":"3869846","MEAN_MOTION_DDOT":"0.0000000000000","REV_AT_EPOCH":"7551","NORAD_CAT_ID":"49449","REF_FRAME":"TEME","COUNTRY_CODE":"US","RCS_SIZE":"LARGE","SEMIMAJOR_AXIS":"6917.739","OBJECT_ID":"2021-104AT","OBJECT_TYPE":"PAYLOAD","ECCENTRICITY":"0.00010920","EPOCH":"2023-03-24T05:57:05.198976","TLE_LINE1":"1 49449U 21104AT  23083.24797684  .00011282  00000-0  72489-3 0  9998","MEAN_ELEMENT_THEORY":"SGP4","ELEMENT_SET_NO":"999","MEAN_MOTION":"15.08886263","EPHEMERIS_TYPE":"0","CLASSIFICATION_TYPE":"U","CENTER_NAME":"EARTH"},{"TIME_SYSTEM":"UTC","PERIOD":"95.432","MEAN_MOTION_DOT":"0.00068690","PERIAPSIS":"538.583","TLE_LINE2":"2 49450  53.2169  33.8683 0001279  94.9138 265.2001 15.08930707 75776","MEAN_ANOMALY":"265.2001","ARG_OF_PERICENTER":"94.9138","DECAY_DATE":null,"INCLINATION":"53.2169","GP_ID":"228789486","OBJECT_NAME":"STARLINK-3127","BSTAR":"0.00428170000000","LAUNCH_DATE":"2021-11-13","SITE":"AFETR","MEAN_ELEMENT_THEORY":"SGP4","ELEMENT_SET_NO":"999","TLE_LINE1":"1 49450U 21104AU  23083.25534827  .00068690  00000-0  42817-2 0  9995","MEAN_MOTION":"15.08930707","EPHEMERIS_TYPE":"0","CLASSIFICATION_TYPE":"U","CENTER_NAME":"EARTH","FILE":"3869846","APOAPSIS":"540.353","RA_OF_ASC_NODE":"33.8683","REF_FRAME":"TEME","NORAD_CAT_ID":"49450","MEAN_MOTION_DDOT":"0.0000000000000","REV_AT_EPOCH":"7577","RCS_SIZE":"LARGE","SEMIMAJOR_AXIS":"6917.603","COUNTRY_CODE":"US","EPOCH":"2023-03-24T06:07:42.090528","ECCENTRICITY":"0.00012790","OBJECT_TYPE":"PAYLOAD","OBJECT_ID":"2021-104AU"},{"PERIAPSIS":"538.102","MEAN_MOTION_DOT":"0.00003669","TLE_LINE2":"2 49451  53.2177  34.5101 0002289 150.9854 209.1266 15.08859725 75498","MEAN_ANOMALY":"209.1266","PERIOD":"95.436","TIME_SYSTEM":"UTC","LAUNCH_DATE":"2021-11-13","SITE":"AFETR","GP_ID":"228789737","INCLINATION":"53.2177","OBJECT_NAME":"STARLINK-3125","BSTAR":"0.00024837000000","DECAY_DATE":null,"ARG_OF_PERICENTER":"150.9854","CENTER_NAME":"EARTH","CLASSIFICATION_TYPE":"U","MEAN_MOTION":"15.08859725","EPHEMERIS_TYPE":"0","ELEMENT_SET_NO":"999","MEAN_ELEMENT_THEORY":"SGP4","TLE_LINE1":"1 49451U 21104AV  23083.11182335  .00003669  00000-0  24837-3 0  9992","EPOCH":"2023-03-24T02:41:01.537440","ECCENTRICITY":"0.00022890","OBJECT_TYPE":"PAYLOAD","OBJECT_ID":"2021-104AV","RCS_SIZE":"LARGE","SEMIMAJOR_AXIS":"6917.820","COUNTRY_CODE":"US","REF_FRAME":"TEME","NORAD_CAT_ID":"49451","MEAN_MOTION_DDOT":"0.0000000000000","REV_AT_EPOCH":"7549","FILE":"3869846","RA_OF_ASC_NODE":"34.5101","APOAPSIS":"541.269"}];
